{"type": "Feature", "properties": {"nom": "Línia de costa de Catalunya", "font": "Natural Earth 10 m physical coastline (domini públic)", "url": "https://raw.githubusercontent.com/nvkelso/natural-earth-vector/master/geojson/ne_10m_coastline.geojson", "escala": "1:10.000.000", "caixa": [0.0, 40.3, 3.6, 42.7], "nota": "Retall de la costa mundial a la caixa de Catalunya. La precisió és de l'ordre de centenars de metres: serveix per dir si una zona és costanera o d'interior, no per mesurar la platja."}, "geometry": {"type": "MultiLineString", "coordinates": [[[3.0376, 42.6832], [3.0418, 42.6291], [3.0462, 42.5877], [3.0518, 42.5549], [3.0661, 42.5421], [3.0875, 42.5349], [3.1146, 42.5306], [3.1374, 42.5249], [3.1459, 42.515], [3.1459, 42.5035], [3.1431, 42.4921], [3.1502, 42.4822], [3.1602, 42.475], [3.1759, 42.4565], [3.1816, 42.4351], [3.1787, 42.418], [3.1702, 42.3966], [3.1745, 42.3809], [3.1745, 42.3638], [3.1873, 42.3495], [3.2042, 42.3396], [3.2265, 42.3425], [3.2498, 42.3432], [3.263, 42.3292], [3.2699, 42.3292], [3.2806, 42.3369], [3.2937, 42.335], [3.3177, 42.323], [3.294, 42.288], [3.2904, 42.2781], [3.287, 42.2629], [3.2794, 42.2556], [3.2704, 42.2501], [3.263, 42.2399], [3.2472, 42.2457], [3.2101, 42.2397], [3.1787, 42.2497], [3.1702, 42.2597], [3.1516, 42.2568], [3.1303, 42.2397], [3.1188, 42.2183], [3.1174, 42.1828], [3.1165, 42.1584], [3.1225, 42.1405], [3.1386, 42.1276], [3.1731, 42.112], [3.1923, 42.0929], [3.2145, 42.0683], [3.213, 42.056], [3.1999, 42.0462], [3.1959, 42.0331], [3.2016, 42.0174], [3.207, 41.9967], [3.2079, 41.99], [3.2118, 41.9846], [3.2306, 41.973], [3.2357, 41.9655], [3.2322, 41.946], [3.2074, 41.9139], [3.1949, 41.8883], [3.1786, 41.8752], [3.1502, 41.8454], [3.1168, 41.8476], [3.0786, 41.8266], [3.0691, 41.7991], [3.0403, 41.7869], [2.9509, 41.7343], [2.933, 41.7125], [2.9009, 41.7067], [2.8773, 41.702], [2.8511, 41.6972], [2.8402, 41.6946], [2.8355, 41.6926], [2.8202, 41.682], [2.8171, 41.6776], [2.8132, 41.6703], [2.8037, 41.6686], [2.792, 41.669], [2.7785, 41.6456], [2.6519, 41.6053], [2.4495, 41.5352], [2.429, 41.5189], [2.3713, 41.4892], [2.2967, 41.4653], [2.2673, 41.4486], [2.2404, 41.421], [2.1919, 41.3568], [2.1633, 41.3266], [2.1305, 41.3037], [2.0603, 41.2746], [2.0197, 41.2659], [1.9513, 41.2607], [1.8841, 41.2475], [1.8638, 41.2381], [1.854, 41.236], [1.8198, 41.2371], [1.6244, 41.1922], [1.5392, 41.1874], [1.2881, 41.1163], [1.2178, 41.1047], [1.2101, 41.0999], [1.1925, 41.076], [1.1886, 41.0683], [1.1836, 41.0626], [1.1729, 41.0587], [1.1491, 41.0696], [1.1417, 41.0717], [1.0977, 41.0709], [1.0557, 41.0649], [1.0174, 41.0518], [0.9904, 41.0397], [0.8775, 40.9548], [0.8228, 40.8996], [0.7142, 40.8152], [0.6948, 40.786], [0.7215, 40.7743], [0.7502, 40.7656], [0.7624, 40.7661], [0.7673, 40.771], [0.7635, 40.7784], [0.7502, 40.786], [0.7669, 40.785], [0.7805, 40.7795], [0.792, 40.7712], [0.8159, 40.7484], [0.8418, 40.7321], [0.8542, 40.7331], [0.8737, 40.7279], [0.8724, 40.7071], [0.8581, 40.6863], [0.8483, 40.6754], [0.784, 40.661], [0.7564, 40.6422], [0.707, 40.5834], [0.6771, 40.5652], [0.648, 40.5569], [0.6159, 40.5535], [0.5925, 40.5821], [0.6406, 40.5869], [0.6632, 40.5747], [0.6962, 40.5904], [0.7327, 40.6337], [0.7125, 40.6362], [0.6822, 40.6342], [0.5998, 40.6137], [0.5802, 40.6037], [0.5635, 40.59], [0.5485, 40.5723], [0.5174, 40.5144], [0.5013, 40.4842], [0.4834, 40.465], [0.4662, 40.4507], [0.4526, 40.4341], [0.4461, 40.4084], [0.4203, 40.3883]]]}}
